CELESTIS-02             
1 25160U 98007D   22364.71790781  .00000057  00000+0  82939-4 0  9991
2 25160 107.9874 301.9854 0061053 135.5531 296.8904 14.21676654290977
CELESTIS-03             
1 26034U 99070C   22365.36278863  .00037823  00000+0  14088-2 0  9996
2 26034  98.3008  31.9369 0008318 166.2705 193.8759 15.27336720251043
